[{"OBJECT_NAME":"ICEYE-X4","OBJECT_ID":"2019-038D","EPOCH":"2026-03-09T23:53:58.416000","MEAN_MOTION":15.26985132,"ECCENTRICITY":0.00122769,"INCLINATION":97.8888,"RA_OF_ASC_NODE":96.1923,"ARG_OF_PERICENTER":293.9914,"MEAN_ANOMALY":66.0038,"EPHEMERIS_TYPE":0,"CLASSIFICATION_TYPE":"U","NORAD_CAT_ID":44390,"ELEMENT_SET_NO":999,"REV_AT_EPOCH":36665,"BSTAR":0.00049915294,"MEAN_MOTION_DOT":0.00013179,"MEAN_MOTION_DDOT":0},{"OBJECT_NAME":"STARLINK-31348","OBJECT_ID":"2024-044W","EPOCH":"2026-03-09T00:21:37.192320","MEAN_MOTION":15.27614686,"ECCENTRICITY":7.914e-5,"INCLINATION":42.9985,"RA_OF_ASC_NODE":64.0168,"ARG_OF_PERICENTER":240.0943,"MEAN_ANOMALY":119.9831,"EPHEMERIS_TYPE":0,"CLASSIFICATION_TYPE":"U","NORAD_CAT_ID":59172,"ELEMENT_SET_NO":999,"REV_AT_EPOCH":11400,"BSTAR":0.0010110982,"MEAN_MOTION_DOT":0.00027695,"MEAN_MOTION_DDOT":0}]
